{
  "type": "FeatureCollection",
  "features": [
    {
      "type": "Feature",
      "properties": {
        "norad_id": 34886,
        "name": "COSMOS 2251 DEB",
        "group": "cosmos-2251-debris",
        "lat": 73.80620596497879,
        "lon": -86.00589251291896,
        "alt_km": 438.48225408225244,
        "timestamp": "2025-12-07T20:38:14.458890+00:00",
        "meta_object_name": "COSMOS 2251 DEB",
        "meta_object_id": "1993-036ACZ",
        "meta_epoch": "2025-12-06T20:50:12.525792",
        "meta_mean_motion": 15.37603061,
        "meta_eccentricity": 0.00307569,
        "meta_inclination": 73.9508,
        "meta_ra_of_asc_node": 193.7093,
        "meta_arg_of_pericenter": 18.7929,
        "meta_mean_anomaly": 341.4404,
        "meta_ephemeris_type": 0,
        "meta_classification_type": "U",
        "meta_norad_cat_id": 34886,
        "meta_element_set_no": 999,
        "meta_rev_at_epoch": 62908,
        "meta_bstar": 0.0027638496,
        "meta_mean_motion_dot": 0.00105044,
        "meta_mean_motion_ddot": 0,
        "tle_line1": "1 34886U 93036ACZ 25340.86820053  .00105044  00000+0  27638-2 0  9997",
        "tle_line2": "2 34886  73.9508 193.7093 0030756  18.7929 341.4404 15.37603061629089"
      },
      "geometry": {
        "type": "Point",
        "coordinates": [
          -86.00589251291896,
          73.80620596497879
        ]
      }
    },
    {
      "type": "Feature",
      "properties": {
        "norad_id": 34907,
        "name": "COSMOS 2251 DEB",
        "group": "cosmos-2251-debris",
        "lat": -45.88520627681876,
        "lon": 41.786453699896306,
        "alt_km": 442.5386002228224,
        "timestamp": "2025-12-07T20:38:14.458900+00:00",
        "meta_object_name": "COSMOS 2251 DEB",
        "meta_object_id": "1993-036ADC",
        "meta_epoch": "2025-12-05T15:47:59.731008",
        "meta_mean_motion": 15.38119042,
        "meta_eccentricity": 0.00186572,
        "meta_inclination": 73.973,
        "meta_ra_of_asc_node": 63.7988,
        "meta_arg_of_pericenter": 350.6146,
        "meta_mean_anomaly": 9.4709,
        "meta_ephemeris_type": 0,
        "meta_classification_type": "U",
        "meta_norad_cat_id": 34907,
        "meta_element_set_no": 999,
        "meta_rev_at_epoch": 87864,
        "meta_bstar": 0.009811493,
        "meta_mean_motion_dot": 0.00389516,
        "meta_mean_motion_ddot": 0,
        "tle_line1": "1 34907U 93036ADC 25339.65833022  .00389516  00000+0  98115-2 0  9992",
        "tle_line2": "2 34907  73.9730  63.7988 0018657 350.6146   9.4709 15.38119042878643"
      },
      "geometry": {
        "type": "Point",
        "coordinates": [
          41.786453699896306,
          -45.88520627681876
        ]
      }
    },
    {
      "type": "Feature",
      "properties": {
        "norad_id": 34908,
        "name": "COSMOS 2251 DEB",
        "group": "cosmos-2251-debris",
        "lat": 32.39260451253835,
        "lon": 43.071496322511265,
        "alt_km": 737.5542668309072,
        "timestamp": "2025-12-07T20:38:14.458910+00:00",
        "meta_object_name": "COSMOS 2251 DEB",
        "meta_object_id": "1993-036ADD",
        "meta_epoch": "2025-12-07T03:55:18.116832",
        "meta_mean_motion": 14.37373662,
        "meta_eccentricity": 0.00399076,
        "meta_inclination": 74.0592,
        "meta_ra_of_asc_node": 33.9034,
        "meta_arg_of_pericenter": 51.9544,
        "meta_mean_anomaly": 339.5802,
        "meta_ephemeris_type": 0,
        "meta_classification_type": "U",
        "meta_norad_cat_id": 34908,
        "meta_element_set_no": 999,
        "meta_rev_at_epoch": 87199,
        "meta_bstar": 0.00086276422,
        "meta_mean_motion_dot": 2.576e-05,
        "meta_mean_motion_ddot": 0,
        "tle_line1": "1 34908U 93036ADD 25341.16340413  .00002576  00000+0  86276-3 0  9993",
        "tle_line2": "2 34908  74.0592  33.9034 0039907  51.9544 339.5802 14.37373662871997"
      },
      "geometry": {
        "type": "Point",
        "coordinates": [
          43.071496322511265,
          32.39260451253835
        ]
      }
    },
    {
      "type": "Feature",
      "properties": {
        "norad_id": 34909,
        "name": "COSMOS 2251 DEB",
        "group": "cosmos-2251-debris",
        "lat": 2.075240854893018,
        "lon": -94.42985086761999,
        "alt_km": 596.604239157733,
        "timestamp": "2025-12-07T20:38:14.458920+00:00",
        "meta_object_name": "COSMOS 2251 DEB",
        "meta_object_id": "1993-036ADE",
        "meta_epoch": "2025-12-07T00:19:56.827488",
        "meta_mean_motion": 14.77752057,
        "meta_eccentricity": 0.00848998,
        "meta_inclination": 74.0149,
        "meta_ra_of_asc_node": 87.8275,
        "meta_arg_of_pericenter": 224.867,
        "meta_mean_anomaly": 134.5622,
        "meta_ephemeris_type": 0,
        "meta_classification_type": "U",
        "meta_norad_cat_id": 34909,
        "meta_element_set_no": 999,
        "meta_rev_at_epoch": 66767,
        "meta_bstar": 0.0010157119,
        "meta_mean_motion_dot": 7.71e-05,
        "meta_mean_motion_ddot": 0,
        "tle_line1": "1 34909U 93036ADE 25341.01385217  .00007710  00000+0  10157-2 0  9998",
        "tle_line2": "2 34909  74.0149  87.8275 0084899 224.8670 134.5622 14.77752057667676"
      },
      "geometry": {
        "type": "Point",
        "coordinates": [
          -94.42985086761999,
          2.075240854893018
        ]
      }
    },
    {
      "type": "Feature",
      "properties": {
        "norad_id": 34910,
        "name": "COSMOS 2251 DEB",
        "group": "cosmos-2251-debris",
        "lat": 66.48615519449667,
        "lon": 150.79447141837224,
        "alt_km": 1429.0119126708478,
        "timestamp": "2025-12-07T20:38:14.458930+00:00",
        "meta_object_name": "COSMOS 2251 DEB",
        "meta_object_id": "1993-036ADF",
        "meta_epoch": "2025-12-04T03:27:09.174816",
        "meta_mean_motion": 13.3765034,
        "meta_eccentricity": 0.04679235,
        "meta_inclination": 73.8763,
        "meta_ra_of_asc_node": 114.9889,
        "meta_arg_of_pericenter": 235.2756,
        "meta_mean_anomaly": 311.3517,
        "meta_ephemeris_type": 0,
        "meta_classification_type": "U",
        "meta_norad_cat_id": 34910,
        "meta_element_set_no": 999,
        "meta_rev_at_epoch": 81409,
        "meta_bstar": 0.0018660381,
        "meta_mean_motion_dot": 1.821e-05,
        "meta_mean_motion_ddot": 0,
        "tle_line1": "1 34910U 93036ADF 25338.14385619  .00001821  00000+0  18660-2 0  9990",
        "tle_line2": "2 34910  73.8763 114.9889 0467923 235.2756 311.3517 13.37650340814099"
      },
      "geometry": {
        "type": "Point",
        "coordinates": [
          150.79447141837224,
          66.48615519449667
        ]
      }
    },
    {
      "type": "Feature",
      "properties": {
        "norad_id": 34911,
        "name": "COSMOS 2251 DEB",
        "group": "cosmos-2251-debris",
        "lat": -53.983179490969,
        "lon": 97.22377927715843,
        "alt_km": 749.120478551512,
        "timestamp": "2025-12-07T20:38:14.458940+00:00",
        "meta_object_name": "COSMOS 2251 DEB",
        "meta_object_id": "1993-036ADG",
        "meta_epoch": "2025-12-07T05:26:19.055616",
        "meta_mean_motion": 14.59357456,
        "meta_eccentricity": 0.00833398,
        "meta_inclination": 74.0413,
        "meta_ra_of_asc_node": 255.2506,
        "meta_arg_of_pericenter": 22.0762,
        "meta_mean_anomaly": 130.0151,
        "meta_ephemeris_type": 0,
        "meta_classification_type": "U",
        "meta_norad_cat_id": 34911,
        "meta_element_set_no": 999,
        "meta_rev_at_epoch": 88506,
        "meta_bstar": 0.00032299875,
        "meta_mean_motion_dot": 1.573e-05,
        "meta_mean_motion_ddot": 0,
        "tle_line1": "1 34911U 93036ADG 25341.22660944  .00001573  00000+0  32300-3 0  9993",
        "tle_line2": "2 34911  74.0413 255.2506 0083339  22.0762 130.0151 14.59357456885066"
      },
      "geometry": {
        "type": "Point",
        "coordinates": [
          97.22377927715843,
          -53.983179490969
        ]
      }
    },
    {
      "type": "Feature",
      "properties": {
        "norad_id": 34913,
        "name": "COSMOS 2251 DEB",
        "group": "cosmos-2251-debris",
        "lat": -43.308935244383775,
        "lon": -84.22160264663333,
        "alt_km": 782.1646316799115,
        "timestamp": "2025-12-07T20:38:14.458949+00:00",
        "meta_object_name": "COSMOS 2251 DEB",
        "meta_object_id": "1993-036ADJ",
        "meta_epoch": "2025-12-06T15:33:47.688768",
        "meta_mean_motion": 14.34634436,
        "meta_eccentricity": 0.00201338,
        "meta_inclination": 74.0279,
        "meta_ra_of_asc_node": 293.6605,
        "meta_arg_of_pericenter": 45.5566,
        "meta_mean_anomaly": 135.1428,
        "meta_ephemeris_type": 0,
        "meta_classification_type": "U",
        "meta_norad_cat_id": 34913,
        "meta_element_set_no": 999,
        "meta_rev_at_epoch": 65100,
        "meta_bstar": 0.00010202972,
        "meta_mean_motion_dot": 2.63e-06,
        "meta_mean_motion_ddot": 0,
        "tle_line1": "1 34913U 93036ADJ 25340.64846862  .00000263  00000+0  10203-3 0  9998",
        "tle_line2": "2 34913  74.0279 293.6605 0020133  45.5566 135.1428 14.34634436651006"
      },
      "geometry": {
        "type": "Point",
        "coordinates": [
          -84.22160264663333,
          -43.308935244383775
        ]
      }
    }
  ]
}